{
    "links": {
        "self": "http://www.neowsapp.com/rest/v1/neo/3756759?api_key=iIulBulltgU6a56xZRHN4H3l9WmuAYTsLGpBGhQ2"
    },
    "id": "3756759",
    "neo_reference_id": "3756759",
    "name": "(2016 PG)",
    "designation": "2016 PG",
    "nasa_jpl_url": "http://ssd.jpl.nasa.gov/sbdb.cgi?sstr=3756759",
    "absolute_magnitude_h": 25.7,
    "estimated_diameter": {
        "kilometers": {
            "estimated_diameter_min": 0.0192555078,
            "estimated_diameter_max": 0.0430566244
        },
        "meters": {
            "estimated_diameter_min": 19.2555078188,
            "estimated_diameter_max": 43.0566244241
        },
        "miles": {
            "estimated_diameter_min": 0.0119648141,
            "estimated_diameter_max": 0.0267541378
        },
        "feet": {
            "estimated_diameter_min": 63.1742402722,
            "estimated_diameter_max": 141.2618956756
        }
    },
    "is_potentially_hazardous_asteroid": false,
    "close_approach_data": [
        {
            "close_approach_date": "2016-08-16",
            "close_approach_date_full": "2016-Aug-16 15:05",
            "epoch_date_close_approach": 1471359900000,
            "relative_velocity": {
                "kilometers_per_second": "6.2271297516",
                "kilometers_per_hour": "22417.667105658",
                "miles_per_hour": "13929.4665412907"
            },
            "miss_distance": {
                "astronomical": "0.0934476413",
                "lunar": "36.3511324657",
                "kilometers": "13979568.095004031",
                "miles": "8686500.8158403878"
            },
            "orbiting_body": "Earth"
        },
        {
            "close_approach_date": "2148-02-17",
            "close_approach_date_full": "2148-Feb-17 06:49",
            "epoch_date_close_approach": 5621208540000,
            "relative_velocity": {
                "kilometers_per_second": "10.3457866991",
                "kilometers_per_hour": "37244.8321168954",
                "miles_per_hour": "23142.4902673009"
            },
            "miss_distance": {
                "astronomical": "0.061972587",
                "lunar": "24.107336343",
                "kilometers": "9270967.01358969",
                "miles": "5760711.774490122"
            },
            "orbiting_body": "Mars"
        }
    ],
    "orbital_data": {
        "orbit_id": "9",
        "orbit_determination_date": "2017-04-06 08:24:47",
        "first_observation_date": "2016-08-01",
        "last_observation_date": "2016-09-06",
        "data_arc_in_days": 36,
        "observations_used": 32,
        "orbit_uncertainty": "7",
        "minimum_orbit_intersection": ".0798552",
        "jupiter_tisserand_invariant": "3.476",
        "epoch_osculation": "2459000.5",
        "eccentricity": ".5076096484936428",
        "semi_major_axis": "2.211827111768548",
        "inclination": ".8138086837485041",
        "ascending_node_longitude": "3.78976776828491",
        "orbital_period": "1201.503921603137",
        "perihelion_distance": "1.089082329035006",
        "perihelion_argument": "332.0537717691896",
        "aphelion_distance": "3.33457189450209",
        "perihelion_time": "2458826.859894310561",
        "mean_anomaly": "52.02682814783661",
        "mean_motion": ".2996244902136156",
        "equinox": "J2000",
        "orbit_class": {
            "orbit_class_type": "AMO",
            "orbit_class_description": "Near-Earth asteroid orbits similar to that of 1221 Amor",
            "orbit_class_range": "1.017 AU < q (perihelion) < 1.3 AU"
        }
    },
    "is_sentry_object": false
}